STARLINK-6075           
1 56102U 23046K   25130.36168127  .00000727  00000+0  68867-4 0  9998
2 56102  43.0061   7.1393 0001189 271.4098  88.6608 15.02539271116439
STARLINK-6096           
1 56103U 23046L   25130.36390094  .00002023  00000+0  16475-3 0  9997
2 56103  43.0073   7.1567 0001704 257.8040 102.2612 15.02550809116432
STARLINK-6062           
1 56104U 23046M   25130.36501402 -.00000075  00000+0  95141-5 0  9990
2 56104  43.0052   7.1675 0001702 271.6373  88.4275 15.02533751116438
STARLINK-6066           
1 56105U 23046N   25130.35169298  .00000669  00000+0  64622-4 0  9990
2 56105  43.0036   7.0672 0001232 265.4350  94.6351 15.02537987116430
STARLINK-6030           
1 56107U 23046Q   25130.08023008  .00000839  00000+0  77169-4 0  9999
2 56107  43.0047   8.4666 0001934 276.0137  84.0485 15.02536071116391
STARLINK-6081           
1 56108U 23046R   25130.36057885  .00006061  00000+0  46366-3 0  9998
2 56108  43.0066   7.1290 0000901 269.2815  90.7924 15.02513408116438
STARLINK-6083           
1 56109U 23046S   25130.34947035  .00000512  00000+0  52976-4 0  9992
2 56109  43.0042   7.0481 0001486 267.7074  92.3599 15.02539422116433
STARLINK-6082           
1 56110U 23046T   25130.35502460 -.00000001  00000+0  15022-4 0  9999
2 56110  43.0044   7.0934 0001161 272.2537  87.8172 15.02534027116437
STARLINK-6084           
1 56111U 23046U   25130.33504539  .00000668  00000+0  64537-4 0  9990
2 56111  43.0044   6.9413 0001332 260.1909  99.8783 15.02535258116435
STARLINK-6080           
1 56112U 23046V   25130.34058890  .00000255  00000+0  33981-4 0  9997
2 56112  43.0076   6.9816 0001881 262.4229  97.6400 15.02536382116438
STARLINK-6113           
1 56113U 23046W   25130.06469584  .00000268  00000+0  34880-4 0  9996
2 56113  43.0034   8.3555 0001120 265.1776  94.8939 15.02532901116396
STARLINK-6101           
1 56115U 23046Y   25129.06308794  .00000279  00000+0  35735-4 0  9993
2 56115  43.0055  13.7384 0001226 266.5213  93.5489 15.02536168116248
STARLINK-6114           
1 56116U 23046Z   25130.33726302 -.00002139  00000+0 -14327-3 0  9997
2 56116  43.0060   6.9591 0001142 264.7132  95.3580 15.02542622116431
STARLINK-6107           
1 56117U 23046AA  25130.91264108 -.00000809  00000+0 -44811-4 0  9997
2 56117  43.0052 351.4226 0001533 265.0690  94.9977 15.02531028117202
