[
  {
    "OBJECT_NAME": "STARLINK-6075",
    "OBJECT_ID": "2023-046K",
    "EPOCH": "2025-05-10T08:40:49.261728",
    "MEAN_MOTION": 15.02539271,
    "ECCENTRICITY": 0.0001189,
    "INCLINATION": 43.0061,
    "RA_OF_ASC_NODE": 7.1393,
    "ARG_OF_PERICENTER": 271.4098,
    "MEAN_ANOMALY": 88.6608,
    "EPHEMERIS_TYPE": 0,
    "CLASSIFICATION_TYPE": "U",
    "NORAD_CAT_ID": 56102,
    "ELEMENT_SET_NO": 999,
    "REV_AT_EPOCH": 11643,
    "BSTAR": 6.8867e-05,
    "MEAN_MOTION_DOT": 7.27e-06,
    "MEAN_MOTION_DDOT": 0
  },
  {
    "OBJECT_NAME": "STARLINK-6096",
    "OBJECT_ID": "2023-046L",
    "EPOCH": "2025-05-10T08:44:01.041216",
    "MEAN_MOTION": 15.02550809,
    "ECCENTRICITY": 0.0001704,
    "INCLINATION": 43.0073,
    "RA_OF_ASC_NODE": 7.1567,
    "ARG_OF_PERICENTER": 257.804,
    "MEAN_ANOMALY": 102.2612,
    "EPHEMERIS_TYPE": 0,
    "CLASSIFICATION_TYPE": "U",
    "NORAD_CAT_ID": 56103,
    "ELEMENT_SET_NO": 999,
    "REV_AT_EPOCH": 11643,
    "BSTAR": 0.00016475,
    "MEAN_MOTION_DOT": 2.023e-05,
    "MEAN_MOTION_DDOT": 0
  },
  {
    "OBJECT_NAME": "STARLINK-6062",
    "OBJECT_ID": "2023-046M",
    "EPOCH": "2025-05-10T08:45:37.211328",
    "MEAN_MOTION": 15.02533751,
    "ECCENTRICITY": 0.0001702,
    "INCLINATION": 43.0052,
    "RA_OF_ASC_NODE": 7.1675,
    "ARG_OF_PERICENTER": 271.6373,
    "MEAN_ANOMALY": 88.4275,
    "EPHEMERIS_TYPE": 0,
    "CLASSIFICATION_TYPE": "U",
    "NORAD_CAT_ID": 56104,
    "ELEMENT_SET_NO": 999,
    "REV_AT_EPOCH": 11643,
    "BSTAR": 9.5141e-06,
    "MEAN_MOTION_DOT": -7.5e-07,
    "MEAN_MOTION_DDOT": 0
  },
  {
    "OBJECT_NAME": "STARLINK-6066",
    "OBJECT_ID": "2023-046N",
    "EPOCH": "2025-05-10T08:26:26.273472",
    "MEAN_MOTION": 15.02537987,
    "ECCENTRICITY": 0.0001232,
    "INCLINATION": 43.0036,
    "RA_OF_ASC_NODE": 7.0672,
    "ARG_OF_PERICENTER": 265.435,
    "MEAN_ANOMALY": 94.6351,
    "EPHEMERIS_TYPE": 0,
    "CLASSIFICATION_TYPE": "U",
    "NORAD_CAT_ID": 56105,
    "ELEMENT_SET_NO": 999,
    "REV_AT_EPOCH": 11643,
    "BSTAR": 6.4622e-05,
    "MEAN_MOTION_DOT": 6.69e-06,
    "MEAN_MOTION_DDOT": 0
  },
  {
    "OBJECT_NAME": "STARLINK-6030",
    "OBJECT_ID": "2023-046Q",
    "EPOCH": "2025-05-10T01:55:31.878912",
    "MEAN_MOTION": 15.02536071,
    "ECCENTRICITY": 0.0001934,
    "INCLINATION": 43.0047,
    "RA_OF_ASC_NODE": 8.4666,
    "ARG_OF_PERICENTER": 276.0137,
    "MEAN_ANOMALY": 84.0485,
    "EPHEMERIS_TYPE": 0,
    "CLASSIFICATION_TYPE": "U",
    "NORAD_CAT_ID": 56107,
    "ELEMENT_SET_NO": 999,
    "REV_AT_EPOCH": 11639,
    "BSTAR": 7.7169e-05,
    "MEAN_MOTION_DOT": 8.39e-06,
    "MEAN_MOTION_DDOT": 0
  },
  {
    "OBJECT_NAME": "STARLINK-6081",
    "OBJECT_ID": "2023-046R",
    "EPOCH": "2025-05-10T08:39:14.012640",
    "MEAN_MOTION": 15.02513408,
    "ECCENTRICITY": 9.01e-05,
    "INCLINATION": 43.0066,
    "RA_OF_ASC_NODE": 7.129,
    "ARG_OF_PERICENTER": 269.2815,
    "MEAN_ANOMALY": 90.7924,
    "EPHEMERIS_TYPE": 0,
    "CLASSIFICATION_TYPE": "U",
    "NORAD_CAT_ID": 56108,
    "ELEMENT_SET_NO": 999,
    "REV_AT_EPOCH": 11643,
    "BSTAR": 0.00046366,
    "MEAN_MOTION_DOT": 6.061e-05,
    "MEAN_MOTION_DDOT": 0
  },
  {
    "OBJECT_NAME": "STARLINK-6083",
    "OBJECT_ID": "2023-046S",
    "EPOCH": "2025-05-10T08:23:14.238240",
    "MEAN_MOTION": 15.02539422,
    "ECCENTRICITY": 0.0001486,
    "INCLINATION": 43.0042,
    "RA_OF_ASC_NODE": 7.0481,
    "ARG_OF_PERICENTER": 267.7074,
    "MEAN_ANOMALY": 92.3599,
    "EPHEMERIS_TYPE": 0,
    "CLASSIFICATION_TYPE": "U",
    "NORAD_CAT_ID": 56109,
    "ELEMENT_SET_NO": 999,
    "REV_AT_EPOCH": 11643,
    "BSTAR": 5.2976e-05,
    "MEAN_MOTION_DOT": 5.12e-06,
    "MEAN_MOTION_DDOT": 0
  },
  {
    "OBJECT_NAME": "STARLINK-6082",
    "OBJECT_ID": "2023-046T",
    "EPOCH": "2025-05-10T08:31:14.125440",
    "MEAN_MOTION": 15.02534027,
    "ECCENTRICITY": 0.0001161,
    "INCLINATION": 43.0044,
    "RA_OF_ASC_NODE": 7.0934,
    "ARG_OF_PERICENTER": 272.2537,
    "MEAN_ANOMALY": 87.8172,
    "EPHEMERIS_TYPE": 0,
    "CLASSIFICATION_TYPE": "U",
    "NORAD_CAT_ID": 56110,
    "ELEMENT_SET_NO": 999,
    "REV_AT_EPOCH": 11643,
    "BSTAR": 1.5022e-05,
    "MEAN_MOTION_DOT": -1e-08,
    "MEAN_MOTION_DDOT": 0
  },
  {
    "OBJECT_NAME": "STARLINK-6084",
    "OBJECT_ID": "2023-046U",
    "EPOCH": "2025-05-10T08:02:27.921696",
    "MEAN_MOTION": 15.02535258,
    "ECCENTRICITY": 0.0001332,
    "INCLINATION": 43.0044,
    "RA_OF_ASC_NODE": 6.9413,
    "ARG_OF_PERICENTER": 260.1909,
    "MEAN_ANOMALY": 99.8783,
    "EPHEMERIS_TYPE": 0,
    "CLASSIFICATION_TYPE": "U",
    "NORAD_CAT_ID": 56111,
    "ELEMENT_SET_NO": 999,
    "REV_AT_EPOCH": 11643,
    "BSTAR": 6.4537e-05,
    "MEAN_MOTION_DOT": 6.68e-06,
    "MEAN_MOTION_DDOT": 0
  },
  {
    "OBJECT_NAME": "STARLINK-6080",
    "OBJECT_ID": "2023-046V",
    "EPOCH": "2025-05-10T08:10:26.880960",
    "MEAN_MOTION": 15.02536382,
    "ECCENTRICITY": 0.0001881,
    "INCLINATION": 43.0076,
    "RA_OF_ASC_NODE": 6.9816,
    "ARG_OF_PERICENTER": 262.4229,
    "MEAN_ANOMALY": 97.64,
    "EPHEMERIS_TYPE": 0,
    "CLASSIFICATION_TYPE": "U",
    "NORAD_CAT_ID": 56112,
    "ELEMENT_SET_NO": 999,
    "REV_AT_EPOCH": 11643,
    "BSTAR": 3.3981e-05,
    "MEAN_MOTION_DOT": 2.55e-06,
    "MEAN_MOTION_DDOT": 0
  },
  {
    "OBJECT_NAME": "STARLINK-6113",
    "OBJECT_ID": "2023-046W",
    "EPOCH": "2025-05-10T01:33:09.720576",
    "MEAN_MOTION": 15.02532901,
    "ECCENTRICITY": 0.000112,
    "INCLINATION": 43.0034,
    "RA_OF_ASC_NODE": 8.3555,
    "ARG_OF_PERICENTER": 265.1776,
    "MEAN_ANOMALY": 94.8939,
    "EPHEMERIS_TYPE": 0,
    "CLASSIFICATION_TYPE": "U",
    "NORAD_CAT_ID": 56113,
    "ELEMENT_SET_NO": 999,
    "REV_AT_EPOCH": 11639,
    "BSTAR": 3.488e-05,
    "MEAN_MOTION_DOT": 2.68e-06,
    "MEAN_MOTION_DDOT": 0
  },
  {
    "OBJECT_NAME": "STARLINK-6101",
    "OBJECT_ID": "2023-046Y",
    "EPOCH": "2025-05-09T01:30:50.798016",
    "MEAN_MOTION": 15.02536168,
    "ECCENTRICITY": 0.0001226,
    "INCLINATION": 43.0055,
    "RA_OF_ASC_NODE": 13.7384,
    "ARG_OF_PERICENTER": 266.5213,
    "MEAN_ANOMALY": 93.5489,
    "EPHEMERIS_TYPE": 0,
    "CLASSIFICATION_TYPE": "U",
    "NORAD_CAT_ID": 56115,
    "ELEMENT_SET_NO": 999,
    "REV_AT_EPOCH": 11624,
    "BSTAR": 3.5735e-05,
    "MEAN_MOTION_DOT": 2.79e-06,
    "MEAN_MOTION_DDOT": 0
  },
  {
    "OBJECT_NAME": "STARLINK-6114",
    "OBJECT_ID": "2023-046Z",
    "EPOCH": "2025-05-10T08:05:39.524928",
    "MEAN_MOTION": 15.02542622,
    "ECCENTRICITY": 0.0001142,
    "INCLINATION": 43.006,
    "RA_OF_ASC_NODE": 6.9591,
    "ARG_OF_PERICENTER": 264.7132,
    "MEAN_ANOMALY": 95.358,
    "EPHEMERIS_TYPE": 0,
    "CLASSIFICATION_TYPE": "U",
    "NORAD_CAT_ID": 56116,
    "ELEMENT_SET_NO": 999,
    "REV_AT_EPOCH": 11643,
    "BSTAR": -0.00014327,
    "MEAN_MOTION_DOT": -2.139e-05,
    "MEAN_MOTION_DDOT": 0
  },
  {
    "OBJECT_NAME": "STARLINK-6107",
    "OBJECT_ID": "2023-046AA",
    "EPOCH": "2025-05-10T21:54:12.189312",
    "MEAN_MOTION": 15.02531028,
    "ECCENTRICITY": 0.0001533,
    "INCLINATION": 43.0052,
    "RA_OF_ASC_NODE": 351.4226,
    "ARG_OF_PERICENTER": 265.069,
    "MEAN_ANOMALY": 94.9977,
    "EPHEMERIS_TYPE": 0,
    "CLASSIFICATION_TYPE": "U",
    "NORAD_CAT_ID": 56117,
    "ELEMENT_SET_NO": 999,
    "REV_AT_EPOCH": 11720,
    "BSTAR": -4.4811e-05,
    "MEAN_MOTION_DOT": -8.09e-06,
    "MEAN_MOTION_DDOT": 0
  }
]